{
  "type": "FeatureCollection",
  "features": [
    {
      "type": "Feature",
      "geometry": { "type": "Point", "coordinates": [-124.16188, 41.13991] },
      "properties": {
        "feature_name": "Sue-meg Point",
        "feature_type": "land",
        "rop_renaming_former_name": "Patrick's Point",
        "rop_renaming_new_name": "Sue-meg Point",
        "rop_renaming_park_unit": "Sue-meg SP",
        "rop_renaming_park_district": "North Coast Redwoods",
        "rop_renaming_tribal_partner": "The Yurok Tribe",
        "rop_renaming_meaning": "Sue-meg is the Yurok name for this coast, used since time immemorial. The former name honored Patrick Beegan, an 1850s settler later implicated in violence against Native Americans.",
        "description": "In 2021, Sue-meg became the first site renamed under California State Parks' Reexamining Our Past initiative, restoring the Yurok place name in place of Patrick's Point.",
        "image_link": "assets/images/rock.jpg",
        "compare_source": "T. T. Waterman, Yurok Geography (1920), Rectangle J"
      }
    },
    {
      "type": "Feature",
      "geometry": { "type": "Point", "coordinates": [-124.15207, 41.13599] },
      "properties": {
        "feature_name": "Sumêg Village",
        "feature_type": "village",
        "built": "1990s",
        "description": "Sumêg Village is a reconstructed Yurok plank-house village, planned and built in the 1990s by Yurok people working with local park staff. Its family houses, sweathouse, changing houses, dance house, and redwood canoe make visible a permanent-village form within a place that was used primarily as a seasonal Yurok encampment. It is a living site for teaching, ceremony, and cultural transmission.",
        "image_link": "assets/images/sumeg_village.jpg",
        "alt-text": "Sumêg - a reconstructed Yurok village",
        "caption": "Sumêg Village, rebuilt in the 1990s - a living cultural site, not a museum exhibit."
      }
    },

    {
      "type": "Feature",
      "geometry": { "type": "Point", "coordinates": [-124.18483, 41.13306] },
      "properties": {
        "feature_name": "Chkweges 'W-a'aag",
        "feature_type": "land",
        "description": "The larger of the Turtle Rocks near Sue-meg. The Yurok Language Project records chkweges as “hair seal” and Chkweges ’W-a’aag as a sea-stack near Patrick’s Point. As an offshore named place, it marks the ocean not as empty space, but as part of a Yurok coastal geography of animals, rocks, travel, and memory.",
        "image_link": "assets/images/turtle_rocks.jpg",
        "alt-text": "“Seals’ Rock” / Turtle Rocks",
        "caption": "“Seals’ Rock” / Turtle Rocks"
      }
    }

  ]
}
